ZHOU ENLAI              
1 43156U 18008B   21248.19601260  .00001466  00000-0  88168-4 0  9990
2 43156  97.4011 310.5875 0015764  56.8059  17.5150 15.12276993200060
QUANTUTONG 1            
1 43158U 18008D   21248.15918627  .00001751  00000-0  10636-3 0  9997
2 43158  97.3954 309.0109 0014637  57.1188 323.2744 15.11681732199989
S-NET D                 
1 43186U 18014G   21247.95983770  .00000985  00000-0  90206-4 0  9993
2 43186  97.6701 154.0935 0011235 166.0580 194.0954 14.97126855196195
S-NET B                 
1 43187U 18014H   21247.49193166  .00000992  00000-0  90885-4 0  9996
2 43187  97.6698 153.5979 0011198 167.5923 192.5576 14.97125387196123
S-NET A                 
1 43188U 18014J   21247.49204275  .00000992  00000-0  90833-4 0  9994
2 43188  97.6702 153.6463 0011190 167.6930 192.4567 14.97124222196126
S-NET C                 
1 43189U 18014K   21247.69304385  .00000982  00000-0  89948-4 0  9994
2 43189  97.6698 153.7870 0011188 166.8655 193.2860 14.97124650194708
FENGMANIU-1 (FMN-1)     
1 43192U 18015A   21248.22606691  .00004455  00000-0  16216-3 0  9990
2 43192  97.4987  24.0688 0013385 325.8796 155.5186 15.28678797199777
SHAONIAN XING           
1 43199U 18015H   21248.16044212  .00003056  00000-0  11444-3 0  9999
2 43199  97.4767  20.8569 0014960 336.4633 199.4556 15.27981922199819
LUOJIA-1 01             
1 43485U 18048B   21248.21102705  .00000241  00000-0  41554-4 0  9990
2 43485  97.9583 328.8105 0012307  45.6912 314.5315 14.76893803175761
SURFSAT                 
1 43614U 18070B   21247.94785172  .00006998  00000-0  15830-3 0  9995
2 43614  93.0362 339.1486 0015978  61.3675 298.9186 15.43028617166929
CP7 (DAVE)              
1 43615U 18070C   21247.98096001  .00006776  00000-0  15496-3 0  9998
2 43615  93.0366 339.1078 0016182  61.2790 299.0090 15.42701303166910
ELFIN-B                 
1 43616U 18070D   21247.51742693  .00010689  00000-0  21740-3 0  9990
2 43616  93.0316 339.2092 0015573  60.0993 300.1810 15.46147636166986
ELFIN-A                 
1 43617U 18070E   21247.70979148  .00011052  00000-0  22061-3 0  9991
2 43617  93.0367 340.2146 0014784  56.7662 303.5011 15.46705920167036
CZ-4B R/B               
1 43656U 18081B   21247.58500914  .00000013  00000-0  22069-4 0  9997
2 43656  99.3688 353.9181 0207727 245.4668 112.4733 14.30477526149485
CUBEBEL-1 (BSUSAT-1)    
1 43666U 18083E   21248.18848471  .00001973  00000-0  95668-4 0  9991
2 43666  97.4526 275.5496 0012779 248.5501 179.6393 15.19635728158121
CHANGSHAGAOXIN (TY 4-01)
1 43669U 18083H   21248.24355591  .00001872  00000-0  94307-4 0  9994
2 43669  97.4435 272.4320 0008972 241.8866 186.1089 15.18378475157996
TEN-KOH                 
1 43677U 18084G   21247.60539305  .00000238  00000-0  30262-4 0  9995
2 43677  97.9294  10.8889 0017112 130.7224 229.5483 14.90513855155098
DIWATA-2B               
1 43678U 18084H   21248.07249393  .00000319  00000-0  37425-4 0  9991
2 43678  97.9333  13.8065 0010604 140.8842 219.3099 14.91785358155303
STARS-AO                
1 43679U 18084J   21247.60522694  .00000256  00000-0  30554-4 0  9994
2 43679  97.9376  14.6793 0009880 148.7866 211.3941 14.92589122155293
AUTCUBE 2               
1 43681U 18084K   21247.59104374  .00000248  00000-0  30054-4 0  9992
2 43681  97.9339  13.6837 0010337 143.4325 216.7600 14.92147738155210
IRVINE01                
1 43693U 18088D   21247.44276885  .00006123  00000-0  23319-3 0  9993
2 43693  85.0360 142.4460 0018665  91.4621 268.8762 15.26333570156487
ES'HAIL 2               
1 43700U 18090A   21247.66181192  .00000139  00000-0  00000-0 0  9995
2 43700   0.0120 129.6876 0002215  72.6787  45.6862  1.00273138 10169
FACSAT-1                
1 43721U 18096C   21248.16169859  .00003257  00000-0  11670-3 0  9998
2 43721  97.3814 324.7000 0016141 354.6230  65.4774 15.29356635154304
CENTAURI-2              
1 43722U 18096D   21247.92863020  .00004574  00000-0  15666-3 0  9995
2 43722  97.3842 325.4368 0015651 353.6643   6.4397 15.30609398154319
3CAT-1                  
1 43728U 18096K   21248.18443021  .00004291  00000-0  14576-3 0  9990
2 43728  97.3844 326.3060 0015693 356.7964  84.5589 15.30913959154380
INNOSAT-2               
1 43738U 18096V   21248.17862087  .00006310  00000-0  19049-3 0  9991
2 43738  97.3901 329.9669 0020016 350.3210  64.7811 15.34431918154627
REAKTOR HELLO WORLD     
1 43743U 18096AA  21247.96500846  .00002726  00000-0  98596-4 0  9997
2 43743  97.3821 324.8714 0016796   0.6056 359.5201 15.29175376154289
ELYSIUM STAR 2 & LFF    
1 43760U 18099C   21247.63240506  .00000830  00000-0  78003-4 0  9992
2 43760  97.6656 317.3342 0014745 137.6809 222.5553 14.96492705150354
2018-099D               
1 43761U 18099D   21248.11227146 -.00000456  00000-0 -36164-4 0  9990
2 43761  97.6597 316.9648 0015182 139.7974 220.4367 14.95343737150365
AISTECHSAT 2            
1 43768U 18099L   21247.88844123  .00000364  00000-0  38425-4 0  9998
2 43768  97.6566 315.5602 0012470 138.3203 221.8971 14.94970226150016
FOX-1CLIFF (AO-95)      
1 43770U 18099N   21247.47625051  .00001000  00000-0  95505-4 0  9993
2 43770  97.6595 315.8988 0015414 148.4064 211.8086 14.95409738150268
RANGE-A                 
1 43772U 18099Q   21247.95642500  .00000935  00000-0  88890-4 0  9991
2 43772  97.6686 317.4892 0015266 134.5256 225.7216 14.95736742150343
RANGE-B                 
1 43773U 18099R   21247.48802742  .00000376  00000-0  39240-4 0  9990
2 43773  97.6529 315.1528 0014595 135.9198 224.3189 14.95280696150251
2018-099T               
1 43775U 18099T   21247.15110172  .00000585  00000-0  58068-4 0  9996
2 43775  97.6598 315.7858 0015638 141.1000 219.1350 14.95342763150213
MOVE-II                 
1 43780U 18099Y   21247.47134689  .00001363  00000-0  12620-3 0  9994
2 43780  97.6615 316.5233 0014473 145.0903 215.1271 14.96063099150284
SNUSAT-2                
1 43782U 18099AA  21247.63019984  .00000222  00000-0  25011-4 0  9996
2 43782  97.6596 316.4181 0013791 134.0898 226.1461 14.95646121150306
SNUGLITE                
1 43784U 18099AC  21247.96621860  .00000162  00000-0  19582-4 0  9995
2 43784  97.6559 316.4527 0015934 141.0471 219.1902 14.95779526150372
ITASAT 1                
1 43786U 18099AE  21247.64784251  .00000124  00000-0  16219-4 0  9998
2 43786  97.6613 316.7998 0016034 142.0044 218.2311 14.95690848150327
KAZSCISAT-1             
1 43787U 18099AF  21248.01143900  .00001344  00000-0  12398-3 0  9999
2 43787  97.6531 316.3149 0015318 136.7426 223.5002 14.96228848150402
EAGLET-I                
1 43790U 18099AJ  21247.66388784  .00000528  00000-0  52007-4 0  9999
2 43790  97.6602 317.2591 0014423 144.7968 215.4209 14.96035922150051
ESEO                    
1 43792U 18099AL  21247.99624546  .00000399  00000-0  40780-4 0  9997
2 43792  97.6565 317.1114 0014314 141.1074 219.1180 14.95775308150157
CSIM-FD                 
1 43793U 18099AM  21247.90632832  .00000384  00000-0  38558-4 0  9990
2 43793  97.6607 317.5534 0013940 137.2191 223.0118 14.96731739150151
ASTROCAST 0.1           
1 43798U 18099AS  21247.93577807  .00000848  00000-0  80038-4 0  9993
2 43798  97.6609 317.7545 0013725 125.1149 235.1361 14.96276555150404
JY1SAT (JO-97)          
1 43803U 18099AX  21247.93265427  .00000902  00000-0  85467-4 0  9994
2 43803  97.6574 316.8217 0016177 140.8125 219.4271 14.95954706150371
SUOMI-100               
1 43804U 18099AY  21247.93980657  .00001052  00000-0  98871-4 0  9994
2 43804  97.6573 316.7886 0016281 140.6222 219.6186 14.95922996150388
AL-FARABI 2             
1 43805U 18099AZ  21248.19617389  .00000463  00000-0  46084-4 0  9997
2 43805  97.6592 317.3039 0015961 139.1424 221.0995 14.96159813150430
CENTAURI-1              
1 43809U 18099BD  21248.01891555  .00000738  00000-0  70915-4 0  9996
2 43809  97.6588 317.1817 0016232 140.9181 219.3216 14.95905956150097
CHOMPTT                 
1 43855U 18104G   21247.24113398  .00001867  00000-0  74682-4 0  9999
2 43855  85.0346 241.2660 0015614 208.3461 151.6935 15.24230964151097
DAVINCI                 
1 43857U 18104J   21247.54399356  .00005817  00000-0  22334-3 0  9999
2 43857  85.0289 240.6610 0012034 230.9600 129.0574 15.26158601151145
UWE-4                   
1 43880U 18111E   21247.99649258  .00000250  00000-0  26744-4 0  9997
2 43880  97.6789 154.3500 0011690 191.8743 168.2204 14.96961176144988
ZACUBE-2                
1 43907U 18111AH  21248.23951707  .00001162  00000-0  48561-4 0  9994
2 43907  97.2229 139.6645 0021869  15.3489 109.9853 15.25363747149794
MICRODRAGON             
1 43935U 19003D   21247.73921831  .00001704  00000-0  73910-4 0  9993
2 43935  97.1751 285.7383 0019524 105.1018 255.2381 15.23489832146179
AOBA VELOX-IV           
1 43940U 19003J   21247.56675052  .00005224  00000-0  19264-3 0  9993
2 43940  97.1720 288.6823 0023918  88.4958 271.9021 15.27938565146385
M6P                     
1 44109U 19018AF  21247.97961550  .00004279  00000-0  12827-3 0  9990
2 44109  97.4228 325.4660 0056565  70.3115 290.4219 15.33455295135640
SPOOQY-1                
1 44332U 98067QH  21247.34476771  .00152291  00000-0  51353-3 0  9991
2 44332  51.6277 236.1784 0002887  60.1803 299.9489 15.89041281126581
FORMOSAT 7-4            
1 44350U 19036M   21247.93720673  .00001193  00000-0  54124-4 0  9992
2 44350  23.9985 184.6138 0005693 277.0758  82.9098 15.07902707120371
PAINANI 1               
1 44365U 19037A   21247.96536100  .00006460  00000-0  15578-3 0  9993
2 44365  45.0043 174.3845 0004992 307.4697  52.5738 15.42080035123040
ACRUX 1                 
1 44369U 19037E   21247.94730126  .00013545  00000-0  24965-3 0  9991
2 44369  45.0052 147.4034 0009414 296.1814  63.8109 15.49115965123319
METEOR-M2 2             
1 44387U 19038A   21248.09908639 -.00000026  00000-0  78655-5 0  9993
2 44387  98.6772 206.8473 0002300  46.1169 314.0196 14.23690592112806
